EXCITE                  
1 43819U 18099BP  26068.69809098  .00002813  00000+0  19631-3 0  9999
2 43819  97.4107 111.3606 0017626 337.4818  22.5634 15.06036758396774
STARLINK-5666           
1 55349U 23013U   26066.98637451  .00000376  00000+0  42868-4 0  9995
2 55349  43.0040 309.5501 0001144 273.5114  86.5598 15.02537813171459
